ONEWEB-0584             
1 54651U 22166K   23253.53993573  .00000014  00000+0  20972-5 0  9996
2 54651  87.9167  85.2017 0001320  87.7241 272.4044 13.21826553 38009
ONEWEB-0585             
1 54652U 22166L   23253.56305669  .00000054  00000+0  99183-4 0  9996
2 54652  87.9171  85.1983 0001940  92.4430 267.6926 13.21824387 38016
ONEWEB-0586             
1 54653U 22166M   23253.57567413 -.00000018  00000+0 -75495-4 0  9997
2 54653  87.9147  85.2467 0001483  94.0451 266.0852 13.21823856 38012
ONEWEB-0587             
1 54654U 22166N   23253.58726069 -.00000003  00000+0 -39107-4 0  9997
2 54654  87.9164  85.1869 0002255  76.6204 283.5181 13.21829963 38178
ONEWEB-0589             
1 54655U 22166P   23253.57358042  .00000133  00000+0  29133-3 0  9998
2 54655  87.9171  85.2014 0000646  97.6740 262.4467 13.21825398 38036
ONEWEB-0590             
1 54656U 22166Q   23253.52312238  .00000360  00000+0  84086-3 0  9991
2 54656  87.9174  85.2178 0001805  81.2658 278.8680 13.21824852 38016
ONEWEB-0591             
1 54657U 22166R   23253.53573734  .00000072  00000+0  14391-3 0  9995
2 54657  87.9173  85.2126 0001534  84.2422 275.8887 13.21826078 38041
ONEWEB-0592             
1 54658U 22166S   23253.53782460  .00000023  00000+0  24172-4 0  9999
2 54658  87.9159  85.1983 0001421  80.6624 279.4670 13.21827686 37927
